NORAD_CAT_ID,OBJECT_NAME,OBJECT_TYPE,EPOCH,MEAN_MOTION,ECCENTRICITY,INCLINATION,RA_OF_ASC_NODE,ARG_OF_PERICENTER,MEAN_ANOMALY,BSTAR,MEAN_MOTION_DOT,MEAN_MOTION_DDOT,TLE_LINE0,TLE_LINE1,TLE_LINE2,SEMIMAJOR_AXIS,PERIOD,APOGEE,PERIGEE,DECAYED
52561.0,STARLINK-3955,PAYLOAD,2023-03-04 07:45:12,15.08888894,0.000128,53.2159,38.3444,91.92,268.1939,0.0031591,0.00050416,0.0,0 STARLINK-3955,1 52561U 22051AE  23063.32306192  .00050416  00000-0  31591-2 0  9996,2 52561  53.2159  38.3444 0001280  91.9200 268.1939 15.08888894 45178,6917.731,95.434,540.481,538.71,0.0
52561.0,STARLINK-3955,PAYLOAD,2023-03-04 22:03:41,15.0884005,0.0001443,53.217,35.6675,77.6354,282.4799,0.00077428,0.00012056,0.0,0 STARLINK-3955,1 52561U 22051AE  23063.91923073  .00012056  00000-0  77428-3 0  9992,2 52561  53.2170  35.6675 0001443  77.6354 282.4799 15.08840050 45264,6917.88,95.438,540.743,538.747,0.0
52561.0,STARLINK-3955,PAYLOAD,2023-03-06 04:16:01,15.0887722,0.0001314,53.2169,30.0176,85.5701,274.5442,0.0022332,0.00035469,0.0,0 STARLINK-3955,1 52561U 22051AE  23065.17779112  .00035469  00000-0  22332-2 0  9991,2 52561  53.2169  30.0176 0001314  85.5701 274.5442 15.08877220 45455,6917.767,95.435,540.541,538.723,0.0
52561.0,STARLINK-3955,PAYLOAD,2023-03-06 21:45:16,15.08829092,0.0001222,53.2183,26.7469,82.3002,277.8129,0.0010786,0.00016914,0.0,0 STARLINK-3955,1 52561U 22051AE  23065.90643842  .00016914  00000-0  10786-2 0  9996,2 52561  53.2183  26.7469 0001222  82.3002 277.8129 15.08829092 45491,6917.914,95.438,540.624,538.933,0.0
52561.0,STARLINK-3955,PAYLOAD,2023-03-07 04:06:48,15.0883342,6.24e-05,53.217,25.5595,76.5633,283.5428,0.0015712,0.00024802,0.0,0 STARLINK-3955,1 52561U 22051AE  23066.17140039  .00024802  00000-0  15712-2 0  9995,2 52561  53.2170  25.5595 0000624  76.5633 283.5428 15.08833420 45603,6917.901,95.438,540.197,539.334,0.0
52561.0,STARLINK-3955,PAYLOAD,2023-03-07 21:36:03,15.08847031,7.33e-05,53.2166,22.284,66.3094,293.7975,0.00087813,0.00013718,0.0,0 STARLINK-3955,1 52561U 22051AE  23066.90004112  .00013718  00000-0  87813-3 0  9993,2 52561  53.2166  22.2840 0000733  66.3094 293.7975 15.08847031 45719,6917.859,95.437,540.231,539.217,0.0
52561.0,STARLINK-3955,PAYLOAD,2023-03-08 03:57:35,15.08867056,7.65e-05,53.2166,21.0979,54.1564,305.9499,0.0022518,0.00035758,0.0,0 STARLINK-3955,1 52561U 22051AE  23067.16499881  .00035758  00000-0  22518-2 0  9991,2 52561  53.2166  21.0979 0000765  54.1564 305.9499 15.08867056 45751,6917.798,95.436,540.192,539.133,0.0
52561.0,STARLINK-3955,PAYLOAD,2023-03-08 21:26:50,15.08867222,0.0001272,53.2164,17.8268,329.1211,30.9707,0.002841,0.00045251,0.0,0 STARLINK-3955,1 52561U 22051AE  23067.89364233  .00045251  00000-0  28410-2 0  9999,2 52561  53.2164  17.8268 0001272 329.1211  30.9707 15.08867222 45797,6917.797,95.436,540.542,538.782,0.0
52561.0,STARLINK-3955,PAYLOAD,2023-03-09 00:37:36,15.08869848,3.37e-05,53.2164,17.2315,25.0151,335.0857,0.0027737,0.00044168,0.0,0 STARLINK-3955,1 52561U 22051AE  23068.02611911  .00044168  00000-0  27737-2 0  9990,2 52561  53.2164  17.2315 0000337  25.0151 335.0857 15.08869848 45881,6917.789,95.436,539.887,539.421,0.0
52561.0,STARLINK-3955,PAYLOAD,2023-03-09 03:48:22,15.08880581,6.53e-05,53.2165,16.6373,26.5083,333.5942,0.0031343,0.00050004,0.0,0 STARLINK-3955,1 52561U 22051AE  23068.15859785  .00050004  00000-0  31343-2 0  9991,2 52561  53.2165  16.6373 0000653  26.5083 333.5942 15.08880581 45830,6917.756,95.435,540.073,539.17,0.0
52561.0,STARLINK-3955,PAYLOAD,2023-03-10 05:14:32,15.08887047,8.64e-05,53.2172,11.8818,83.6329,276.4762,0.0022518,0.00035778,0.0,0 STARLINK-3955,1 52561U 22051AE  23069.21843017  .00035778  00000-0  22518-2 0  9995,2 52561  53.2172  11.8818 0000864  83.6329 276.4762 15.08887047 46065,6917.737,95.435,540.199,539.004,0.0
52561.0,STARLINK-3955,PAYLOAD,2023-03-10 19:33:01,15.08808453,0.0001548,53.217,9.2061,59.3908,300.7236,0.00056695,8.739e-05,0.0,0 STARLINK-3955,1 52561U 22051AE  23069.81460315  .00008739  00000-0  56695-3 0  9998,2 52561  53.2170   9.2061 0001548  59.3908 300.7236 15.08808453 46158,6917.977,95.44,540.913,538.771,0.0
52561.0,STARLINK-3955,PAYLOAD,2023-03-11 03:29:57,15.08820843,0.0001381,53.2176,7.7194,50.2447,309.8666,0.0019625,0.00031067,0.0,0 STARLINK-3955,1 52561U 22051AE  23070.14580856  .00031067  00000-0  19625-2 0  9990,2 52561  53.2176   7.7194 0001381  50.2447 309.8666 15.08820843 46207,6917.939,95.439,540.759,538.849,0.0
52561.0,STARLINK-3955,PAYLOAD,2023-03-12 04:56:07,15.08871974,0.0001409,53.2171,2.9629,56.0458,304.0667,0.0017861,0.00028277,0.0,0 STARLINK-3955,1 52561U 22051AE  23071.20564718  .00028277  00000-0  17861-2 0  9996,2 52561  53.2171   2.9629 0001409  56.0458 304.0667 15.08871974 46365,6917.783,95.436,540.622,538.673,0.0
52561.0,STARLINK-3955,PAYLOAD,2023-03-13 00:00:46,15.08849891,0.0001495,53.2179,359.3937,68.0868,292.0283,0.0018416,0.00029151,0.0,0 STARLINK-3955,1 52561U 22051AE  23072.00053520  .00029151  00000-0  18416-2 0  9998,2 52561  53.2179 359.3937 0001495  68.0868 292.0283 15.08849891 46483,6917.85,95.437,540.749,538.681,0.0
52561.0,STARLINK-3955,PAYLOAD,2023-03-13 01:36:09,15.08845063,0.0001523,53.2171,359.094,74.2467,285.8693,0.0013275,0.00020905,0.0,0 STARLINK-3955,1 52561U 22051AE  23072.06677436  .00020905  00000-0  13275-2 0  9998,2 52561  53.2171 359.0940 0001523  74.2467 285.8693 15.08845063 46495,6917.865,95.437,540.784,538.676,0.0
52561.0,STARLINK-3955,PAYLOAD,2023-03-13 22:16:10,15.08845467,0.0001375,53.2169,355.2263,82.4892,277.6256,0.0010701,0.00016786,0.0,0 STARLINK-3955,1 52561U 22051AE  23072.92789871  .00016786  00000-0  10701-2 0  9993,2 52561  53.2169 355.2263 0001375  82.4892 277.6256 15.08845467 46555,6917.864,95.437,540.68,538.777,0.0
52561.0,STARLINK-3955,PAYLOAD,2023-03-14 01:26:56,15.08834316,0.0001576,53.2166,354.631,87.5413,272.5759,0.00089956,0.00014055,0.0,0 STARLINK-3955,1 52561U 22051AE  23073.06037994  .00014055  00000-0  89956-3 0  9997,2 52561  53.2166 354.6310 0001576  87.5413 272.5759 15.08834316 46649,6917.898,95.438,540.853,538.673,0.0
52561.0,STARLINK-3955,PAYLOAD,2023-03-15 01:17:42,15.08879406,0.0001697,53.2172,350.1713,107.2015,252.9163,0.001562,0.00024686,0.0,0 STARLINK-3955,1 52561U 22051AE  23074.05396786  .00024686  00000-0  15620-2 0  9991,2 52561  53.2172 350.1713 0001697 107.2015 252.9163 15.08879406 46792,6917.76,95.435,540.799,538.451,0.0
52561.0,STARLINK-3955,PAYLOAD,2023-03-15 21:57:42,15.0886349,0.0001759,53.2181,346.3103,121.5995,238.5169,0.00040458,6.161e-05,0.0,0 STARLINK-3955,1 52561U 22051AE  23074.91507880  .00006161  00000-0  40458-3 0  9991,2 52561  53.2181 346.3103 0001759 121.5995 238.5169 15.08863490 46856,6917.809,95.436,540.89,538.457,0.0
52561.0,STARLINK-3955,PAYLOAD,2023-03-16 04:19:15,15.08863227,0.0001406,53.2171,345.1145,107.2867,252.8279,0.00050138,7.706e-05,0.0,0 STARLINK-3955,1 52561U 22051AE  23075.18003608  .00007706  00000-0  50138-3 0  9992,2 52561  53.2171 345.1145 0001406 107.2867 252.8279 15.08863227 46967,6917.809,95.436,540.647,538.702,0.0
52561.0,STARLINK-3955,PAYLOAD,2023-03-16 18:37:44,15.08804408,0.0001136,53.2179,342.4395,94.4379,265.6743,-0.00015221,-2.707e-05,0.0,0 STARLINK-3955,1 52561U 22051AE  23075.77621105 -.00002707  00000-0 -15221-3 0  9997,2 52561  53.2179 342.4395 0001136  94.4379 265.6743 15.08804408 46983,6917.989,95.44,540.64,539.068,0.0
52561.0,STARLINK-3955,PAYLOAD,2023-03-16 23:23:54,15.08807998,0.0001284,53.2173,341.5452,101.2341,258.8795,0.00038659,5.865e-05,0.0,0 STARLINK-3955,1 52561U 22051AE  23075.97493581  .00005865  00000-0  38659-3 0  9990,2 52561  53.2173 341.5452 0001284 101.2341 258.8795 15.08807998 47081,6917.978,95.44,540.731,538.955,0.0
52561.0,STARLINK-3955,PAYLOAD,2023-03-17 10:31:36,15.08829769,0.0001123,53.2173,339.466,91.2119,268.9002,0.00091342,0.00014275,0.0,0 STARLINK-3955,1 52561U 22051AE  23076.43862052  .00014275  00000-0  91342-3 0  9998,2 52561  53.2173 339.4660 0001123  91.2119 268.9002 15.08829769 47152,6917.912,95.438,540.554,539.0,0.0
52561.0,STARLINK-3955,PAYLOAD,2023-03-17 21:39:18,15.08845876,9.5e-05,53.2164,337.3827,87.1628,272.9473,0.00098494,0.00015425,0.0,0 STARLINK-3955,1 52561U 22051AE  23076.90230004  .00015425  00000-0  98494-3 0  9999,2 52561  53.2164 337.3827 0000950  87.1628 272.9473 15.08845876 47154,6917.862,95.437,540.385,539.07,0.0
52561.0,STARLINK-3955,PAYLOAD,2023-03-18 21:30:05,15.08859472,0.0001333,53.2167,332.9251,87.4413,272.6732,0.00055325,8.533e-05,0.0,0 STARLINK-3955,1 52561U 22051AE  23077.89589267  .00008533  00000-0  55325-3 0  9994,2 52561  53.2167 332.9251 0001333  87.4413 272.6732 15.08859472 47376,6917.821,95.436,540.608,538.764,0.0
52561.0,STARLINK-3955,PAYLOAD,2023-03-19 10:13:10,15.08848967,0.0001473,53.217,330.5463,77.0569,283.0587,0.00013175,1.81e-05,0.0,0 STARLINK-3955,1 52561U 22051AE  23078.42581244  .00001810  00000-0  13175-3 0  9999,2 52561  53.2170 330.5463 0001473  77.0569 283.0587 15.08848967 47451,6917.853,95.437,540.737,538.699,0.0
52561.0,STARLINK-3955,PAYLOAD,2023-03-19 21:20:52,15.08842279,0.0001885,53.217,328.4656,78.5175,281.6028,8.3915e-05,1.048e-05,0.0,0 STARLINK-3955,1 52561U 22051AE  23078.88949550  .00001048  00000-0  83915-4 0  9990,2 52561  53.2170 328.4656 0001885  78.5175 281.6028 15.08842279 47451,6917.873,95.437,541.042,538.434,0.0
52561.0,STARLINK-3955,PAYLOAD,2023-03-20 02:07:01,15.088454,0.0001452,53.2169,327.5732,76.4506,283.6648,0.00025624,3.793e-05,0.0,0 STARLINK-3955,1 52561U 22051AE  23079.08821402  .00003793  00000-0  25624-3 0  9999,2 52561  53.2169 327.5732 0001452  76.4506 283.6648 15.08845400 47559,6917.864,95.437,540.733,538.724,0.0
52561.0,STARLINK-3955,PAYLOAD,2023-03-20 22:47:02,15.08853389,0.0001419,53.2173,323.7077,80.6778,279.4375,0.00065367,0.00010134,0.0,0 STARLINK-3955,1 52561U 22051AE  23079.94933263  .00010134  00000-0  65367-3 0  9998,2 52561  53.2173 323.7077 0001419  80.6778 279.4375 15.08853389 47617,6917.839,95.437,540.686,538.723,0.0
